{
  "norad_id": 66339,
  "name": "STARLINK-35443",
  "history": [
    {
      "epoch": "2026-05-02T10:20:16.494144Z",
      "apogee_km": 484.159737286117,
      "perigee_km": 481.933969244119,
      "latitude_deg": -1.6806771048066688e-05,
      "longitude_deg": -106.42673498068348,
      "height_km": 482.50933451712217,
      "semi_major_axis_km": 6861.183853265118,
      "eccentricity": 0.0001622,
      "inclination_deg": 43.0003,
      "raan_deg": 268.9909,
      "arg_perigee_deg": 286.4115,
      "mean_anomaly_deg": 73.6558,
      "mean_motion_rev_day": 15.27580749
    },
    {
      "epoch": "2026-05-03T17:43:24.531168Z",
      "apogee_km": 483.986692413303,
      "perigee_km": 481.91052790766935,
      "latitude_deg": 1.0219933551875723e-05,
      "longitude_deg": 134.11204336396173,
      "height_km": 482.26812524412406,
      "semi_major_axis_km": 6861.085610160486,
      "eccentricity": 0.0001513,
      "inclination_deg": 42.9995,
      "raan_deg": 261.6021,
      "arg_perigee_deg": 296.1285,
      "mean_anomaly_deg": 63.9411,
      "mean_motion_rev_day": 15.27613559
    },
    {
      "epoch": "2026-05-04T17:15:45.225216Z",
      "apogee_km": 483.9467794393595,
      "perigee_km": 482.0723142027682,
      "latitude_deg": 4.435812399488716e-05,
      "longitude_deg": 134.52103547976284,
      "height_km": 482.5672382589005,
      "semi_major_axis_km": 6861.146546821064,
      "eccentricity": 0.0001366,
      "inclination_deg": 42.9998,
      "raan_deg": 256.064,
      "arg_perigee_deg": 283.5101,
      "mean_anomaly_deg": 76.5599,
      "mean_motion_rev_day": 15.27593208
    },
    {
      "epoch": "2026-05-05T16:48:05.871744Z",
      "apogee_km": 483.61282615469645,
      "perigee_km": 482.3188221620603,
      "latitude_deg": 2.4766570281068133e-06,
      "longitude_deg": 134.92804472101213,
      "height_km": 482.1695751621803,
      "semi_major_axis_km": 6861.102824158378,
      "eccentricity": 9.43e-05,
      "inclination_deg": 42.9985,
      "raan_deg": 250.5238,
      "arg_perigee_deg": 332.139,
      "mean_anomaly_deg": 27.9411,
      "mean_motion_rev_day": 15.2760781
    },
    {
      "epoch": "2026-05-06T16:20:27.805632Z",
      "apogee_km": 484.69873150317653,
      "perigee_km": 481.50276695958473,
      "latitude_deg": 2.7951845164239992e-05,
      "longitude_deg": 135.33264705775719,
      "height_km": 482.7455693510407,
      "semi_major_axis_km": 6861.23774923138,
      "eccentricity": 0.0002329,
      "inclination_deg": 42.9995,
      "raan_deg": 244.9865,
      "arg_perigee_deg": 274.758,
      "mean_anomaly_deg": 85.3006,
      "mean_motion_rev_day": 15.2756275
    },
    {
      "epoch": "2026-05-07T15:52:49.049184Z",
      "apogee_km": 484.0602078822376,
      "perigee_km": 481.99499733685207,
      "latitude_deg": -8.913897151488834e-06,
      "longitude_deg": 135.73876743467068,
      "height_km": 482.99484618265967,
      "semi_major_axis_km": 6861.164602609545,
      "eccentricity": 0.0001505,
      "inclination_deg": 42.9996,
      "raan_deg": 239.4479,
      "arg_perigee_deg": 259.3662,
      "mean_anomaly_deg": 100.702,
      "mean_motion_rev_day": 15.27587178
    },
    {
      "epoch": "2026-05-08T13:50:59.656704Z",
      "apogee_km": 483.9781627085031,
      "perigee_km": 481.9692294966844,
      "latitude_deg": 5.845535210008849e-05,
      "longitude_deg": 160.12197853249813,
      "height_km": 482.9756149782472,
      "semi_major_axis_km": 6861.1106961025935,
      "eccentricity": 0.0001464,
      "inclination_deg": 42.9991,
      "raan_deg": 234.2775,
      "arg_perigee_deg": 257.0363,
      "mean_anomaly_deg": 103.0326,
      "mean_motion_rev_day": 15.27605181
    },
    {
      "epoch": "2026-05-09T07:06:42.710688Z",
      "apogee_km": 484.02930166323677,
      "perigee_km": 482.05136146209406,
      "latitude_deg": 2.8746109199558652e-05,
      "longitude_deg": -103.57867000936992,
      "height_km": 482.768217888905,
      "semi_major_axis_km": 6861.177331562665,
      "eccentricity": 0.00014414,
      "inclination_deg": 42.9979,
      "raan_deg": 230.2152,
      "arg_perigee_deg": 272.8178,
      "mean_anomaly_deg": 87.2509,
      "mean_motion_rev_day": 15.27582927
    },
    {
      "epoch": "2026-05-10T12:55:41.074176Z",
      "apogee_km": 483.62915869434073,
      "perigee_km": 482.42708256520655,
      "latitude_deg": -1.516903595795427e-05,
      "longitude_deg": 160.93769170497237,
      "height_km": 482.7866544187459,
      "semi_major_axis_km": 6861.165120629773,
      "eccentricity": 8.76e-05,
      "inclination_deg": 42.9979,
      "raan_deg": 223.1993,
      "arg_perigee_deg": 271.667,
      "mean_anomaly_deg": 88.4081,
      "mean_motion_rev_day": 15.27587005
    },
    {
      "epoch": "2026-05-11T12:28:01.856352Z",
      "apogee_km": 484.6825178431973,
      "perigee_km": 481.38133502593246,
      "latitude_deg": -5.035307729869508e-07,
      "longitude_deg": 161.3446976803999,
      "height_km": 482.60535939756096,
      "semi_major_axis_km": 6861.168926434564,
      "eccentricity": 0.00024057,
      "inclination_deg": 43.0003,
      "raan_deg": 217.6596,
      "arg_perigee_deg": 277.1023,
      "mean_anomaly_deg": 82.9555,
      "mean_motion_rev_day": 15.27585734
    },
    {
      "epoch": "2026-05-12T13:34:31.908576Z",
      "apogee_km": 484.0087627041994,
      "perigee_km": 482.06567816497136,
      "latitude_deg": 4.367662967993737e-05,
      "longitude_deg": 137.7801642272954,
      "height_km": 482.8349939618935,
      "semi_major_axis_km": 6861.174220434585,
      "eccentricity": 0.0001416,
      "inclination_deg": 42.9991,
      "raan_deg": 211.7514,
      "arg_perigee_deg": 268.7516,
      "mean_anomaly_deg": 91.3174,
      "mean_motion_rev_day": 15.27583966
    }
  ]
}